GPS_BIIF-5 -PRN-30
1 39533U 14008A   23124.42859031  .00000055  00000+0  00000+0 0  9998
2 39533  53.6008 195.7587 0065554 212.8578 146.8092  2.00571494 66821
